NORAD_CAT_ID,OBJECT_NAME,OBJECT_TYPE,EPOCH,MEAN_MOTION,ECCENTRICITY,INCLINATION,RA_OF_ASC_NODE,ARG_OF_PERICENTER,MEAN_ANOMALY,BSTAR,MEAN_MOTION_DOT,MEAN_MOTION_DDOT,TLE_LINE0,TLE_LINE1,TLE_LINE2,SEMIMAJOR_AXIS,PERIOD,APOGEE,PERIGEE,DECAYED
53711.0,STARLINK-4627,PAYLOAD,2024-03-15 12:47:41,15.08853848,0.0001346,53.2176,259.7901,78.009,282.1053,9.6774e-05,1.253e-05,0.0,0 STARLINK-4627,1 53711U 22107M   24075.53312333  .00001253  00000-0  96774-4 0  9998,2 53711  53.2176 259.7901 0001346  78.0090 282.1053 15.08853848 84715,6917.838,95.437,540.634,538.772,0.0
53711.0,STARLINK-4627,PAYLOAD,2024-03-16 20:35:24,15.08843383,0.0001079,53.2171,253.8431,89.1817,270.9299,-4.7455e-05,-1.043e-05,0.0,0 STARLINK-4627,1 53711U 22107M   24076.85792714 -.00001043  00000-0 -47455-4 0  9990,2 53711  53.2171 253.8431 0001079  89.1817 270.9299 15.08843383 84918,6917.87,95.437,540.481,538.989,0.0
53711.0,STARLINK-4627,PAYLOAD,2024-03-17 20:26:11,15.08840153,0.0001127,53.217,249.3784,76.7145,283.3973,9.5369e-05,1.23e-05,0.0,0 STARLINK-4627,1 53711U 22107M   24077.85152491  .00001230  00000-0  95369-4 0  9996,2 53711  53.2170 249.3784 0001127  76.7145 283.3973 15.08840153 85503,6917.88,95.438,540.525,538.965,0.0
53711.0,STARLINK-4627,PAYLOAD,2024-03-18 20:16:58,15.0883939,0.0001177,53.2174,244.919,77.2149,282.8975,7.9616e-05,9.79e-06,0.0,0 STARLINK-4627,1 53711U 22107M   24078.84512720  .00000979  00000-0  79616-4 0  9997,2 53711  53.2174 244.9190 0001177  77.2149 282.8975 15.08839390 85219,6917.882,95.438,540.561,538.933,0.0
53711.0,STARLINK-4627,PAYLOAD,2024-03-19 10:35:27,15.08844486,0.0001191,53.2175,242.2439,74.8835,285.2289,6.7003e-05,7.79e-06,0.0,0 STARLINK-4627,1 53711U 22107M   24079.44128540  .00000779  00000-0  67003-4 0  9992,2 53711  53.2175 242.2439 0001191  74.8835 285.2289 15.08844486 85743,6917.867,95.437,540.556,538.908,0.0
53711.0,STARLINK-4627,PAYLOAD,2024-03-19 16:56:59,15.08848836,0.0001364,53.2172,241.0558,69.4775,290.6363,0.000112,1.495e-05,0.0,0 STARLINK-4627,1 53711U 22107M   24079.70624117  .00001495  00000-0  11200-3 0  9995,2 53711  53.2172 241.0558 0001364  69.4775 290.6363 15.08848836 85346,6917.853,95.437,540.662,538.775,0.0
53711.0,STARLINK-4627,PAYLOAD,2024-03-20 10:26:14,15.08844425,0.0001478,53.2162,237.7856,74.4126,285.7029,4.1603e-05,3.74e-06,0.0,0 STARLINK-4627,1 53711U 22107M   24080.43488557  .00000374  00000-0  41603-4 0  9999,2 53711  53.2162 237.7856 0001478  74.4126 285.7029 15.08844425 85456,6917.867,95.437,540.754,538.709,0.0
53711.0,STARLINK-4627,PAYLOAD,2024-03-20 16:47:47,15.08837503,0.0001187,53.2156,236.593,98.6184,261.4942,-1.5984e-05,-5.42e-06,0.0,0 STARLINK-4627,1 53711U 22107M   24080.69984967 -.00000542  00000-0 -15984-4 0  9995,2 53711  53.2156 236.5930 0001187  98.6184 261.4942 15.08837503 85496,6917.888,95.438,540.574,538.932,0.0
53711.0,STARLINK-4627,PAYLOAD,2024-03-21 13:27:47,15.08843183,0.0001578,53.2178,232.7262,128.5432,231.5702,-1.4635e-05,-5.21e-06,0.0,0 STARLINK-4627,1 53711U 22107M   24081.56096567 -.00000521  00000-0 -14635-4 0  9991,2 53711  53.2178 232.7262 0001578 128.5432 231.5702 15.08843183 86066,6917.871,95.437,540.827,538.644,0.0
53711.0,STARLINK-4627,PAYLOAD,2024-03-21 15:03:10,15.08844866,0.0001538,53.2179,232.4302,114.3727,245.7426,4.4362e-06,-2.17e-06,0.0,0 STARLINK-4627,1 53711U 22107M   24081.62720470 -.00000217  00000-0  44362-5 0  9997,2 53711  53.2179 232.4302 0001538 114.3727 245.7426 15.08844866 85636,6917.866,95.437,540.794,538.667,0.0
53711.0,STARLINK-4627,PAYLOAD,2024-03-22 14:53:57,15.0884034,0.0001686,53.218,227.97,114.5692,245.5476,0.00016558,2.348e-05,0.0,0 STARLINK-4627,1 53711U 22107M   24082.62080255  .00002348  00000-0  16558-3 0  9998,2 53711  53.2180 227.9700 0001686 114.5692 245.5476 15.08840340 86228,6917.879,95.438,540.911,538.578,0.0
53711.0,STARLINK-4627,PAYLOAD,2024-03-22 19:40:06,15.08844275,0.0001298,53.2168,227.0748,112.0781,248.0349,0.00014765,2.063e-05,0.0,0 STARLINK-4627,1 53711U 22107M   24082.81951988  .00002063  00000-0  14765-3 0  9991,2 53711  53.2168 227.0748 0001298 112.0781 248.0349 15.08844275 85810,6917.867,95.437,540.63,538.834,0.0
53711.0,STARLINK-4627,PAYLOAD,2024-03-23 13:09:21,15.08836257,0.0001728,53.2168,223.8013,124.2011,235.9145,1.5811e-05,-3.6e-07,0.0,0 STARLINK-4627,1 53711U 22107M   24083.54817097 -.00000036  00000-0  15811-4 0  9997,2 53711  53.2168 223.8013 0001728 124.2011 235.9145 15.08836257 85920,6917.892,95.438,540.952,538.561,0.0
53711.0,STARLINK-4627,PAYLOAD,2024-03-23 16:20:08,15.08836673,0.0001282,53.2161,223.206,106.062,254.0514,-3.5347e-05,-8.5e-06,0.0,0 STARLINK-4627,1 53711U 22107M   24083.68065280 -.00000850  00000-0 -35347-4 0  9992,2 53711  53.2161 223.2060 0001282 106.0620 254.0514 15.08836673 86383,6917.891,95.438,540.642,538.869,0.0
53711.0,STARLINK-4627,PAYLOAD,2024-03-24 14:35:31,15.08844002,0.0001328,53.2164,219.043,83.5699,276.5444,7.6213e-05,9.25e-06,0.0,0 STARLINK-4627,1 53711U 22107M   24084.60800918  .00000925  00000-0  76213-4 0  9998,2 53711  53.2164 219.0430 0001328  83.5699 276.5444 15.08844002 86528,6917.868,95.437,540.652,538.814,0.0
53711.0,STARLINK-4627,PAYLOAD,2024-03-24 16:10:54,15.08846455,0.0001347,53.2171,218.7458,84.6681,275.4465,0.00010002,1.305e-05,0.0,0 STARLINK-4627,1 53711U 22107M   24084.67424714  .00001305  00000-0  10002-3 0  9997,2 53711  53.2171 218.7458 0001347  84.6681 275.4465 15.08846455 86093,6917.861,95.437,540.657,538.794,0.0
53711.0,STARLINK-4627,PAYLOAD,2024-03-25 01:43:12,15.08868732,0.0001415,53.2167,216.9623,71.7056,288.409,0.00038358,5.827e-05,0.0,0 STARLINK-4627,1 53711U 22107M   24085.07167586  .00005827  00000-0  38358-3 0  9990,2 53711  53.2167 216.9623 0001415  71.7056 288.4090 15.08868732 86158,6917.793,95.436,540.636,538.679,0.0
53711.0,STARLINK-4627,PAYLOAD,2024-03-25 12:50:56,15.08832325,0.0001486,53.217,214.8829,83.7166,276.3995,8.5227e-05,1.068e-05,0.0,0 STARLINK-4627,1 53711U 22107M   24085.53537507  .00001068  00000-0  85227-4 0  9996,2 53711  53.2170 214.8829 0001486  83.7166 276.3995 15.08832325 86227,6917.904,95.438,540.797,538.741,0.0
53711.0,STARLINK-4627,PAYLOAD,2024-03-25 17:37:05,15.08856894,0.0001393,53.2169,213.9924,89.2843,270.8309,0.00053129,8.181e-05,0.0,0 STARLINK-4627,1 53711U 22107M   24085.73408709  .00008181  00000-0  53129-3 0  9997,2 53711  53.2169 213.9924 0001393  89.2843 270.8309 15.08856894 86259,6917.829,95.436,540.657,538.73,0.0
53711.0,STARLINK-4627,PAYLOAD,2024-03-26 14:17:07,15.08823359,0.0001405,53.2172,210.1261,106.9126,253.2021,8.6231e-06,-1.51e-06,0.0,0 STARLINK-4627,1 53711U 22107M   24086.59522031 -.00000151  00000-0  86231-5 0  9999,2 53711  53.2172 210.1261 0001405 106.9126 253.2021 15.08823359 86381,6917.931,95.439,540.768,538.824,0.0
53711.0,STARLINK-4627,PAYLOAD,2024-03-26 15:52:30,15.08823074,0.0001305,53.2168,209.8287,107.4972,252.6163,0.00010514,1.385e-05,0.0,0 STARLINK-4627,1 53711U 22107M   24086.66146184  .00001385  00000-0  10514-3 0  9996,2 53711  53.2168 209.8287 0001305 107.4972 252.6163 15.08823074 86837,6917.932,95.439,540.7,538.894,0.0
53711.0,STARLINK-4627,PAYLOAD,2024-03-27 14:07:54,15.08843948,0.0001381,53.2169,205.6671,113.8657,246.248,0.00096438,0.00015095,0.0,0 STARLINK-4627,1 53711U 22107M   24087.58882841  .00015095  00000-0  96438-3 0  9997,2 53711  53.2169 205.6671 0001381 113.8657 246.2480 15.08843948 86972,6917.868,95.437,540.689,538.778,0.0
53711.0,STARLINK-4627,PAYLOAD,2024-03-28 01:15:35,15.08876881,0.0001317,53.2159,203.5844,109.4268,250.6866,0.0014387,0.00022706,0.0,0 STARLINK-4627,1 53711U 22107M   24088.05249834  .00022706  00000-0  14387-2 0  9998,2 53711  53.2159 203.5844 0001317 109.4268 250.6866 15.08876881 86607,6917.768,95.435,540.544,538.722,0.0
53711.0,STARLINK-4627,PAYLOAD,2024-03-28 12:23:18,15.08844555,0.0001487,53.2164,201.5061,81.3877,278.7284,0.00097307,0.00015234,0.0,0 STARLINK-4627,1 53711U 22107M   24088.51618061  .00015234  00000-0  97307-3 0  9993,2 53711  53.2164 201.5061 0001487  81.3877 278.7284 15.08844555 86679,6917.866,95.437,540.76,538.703,0.0
53711.0,STARLINK-4627,PAYLOAD,2024-03-28 13:58:41,15.08843825,0.0001461,53.2166,201.2083,86.398,273.7179,0.0011747,0.00018459,0.0,0 STARLINK-4627,1 53711U 22107M   24088.58242036  .00018459  00000-0  11747-2 0  9990,2 53711  53.2166 201.2083 0001461  86.3980 273.7179 15.08843825 87122,6917.869,95.437,540.744,538.723,0.0
53711.0,STARLINK-4627,PAYLOAD,2024-03-28 17:09:27,15.08848518,0.0001567,53.2162,200.6137,83.6639,276.4532,0.0014402,0.00022712,0.0,0 STARLINK-4627,1 53711U 22107M   24088.71490000  .00022712  00000-0  14402-2 0  9999,2 53711  53.2162 200.6137 0001567  83.6639 276.4532 15.08848518 87148,6917.854,95.437,540.803,538.635,0.0
53711.0,STARLINK-4627,PAYLOAD,2024-03-29 13:49:28,15.08846869,0.0001413,53.2163,196.7446,90.6529,269.4625,0.00023059,3.384e-05,0.0,0 STARLINK-4627,1 53711U 22107M   24089.57601862  .00003384  00000-0  23059-3 0  9997,2 53711  53.2163 196.7446 0001413  90.6529 269.4625 15.08846869 86830,6917.859,95.437,540.702,538.747,0.0
53711.0,STARLINK-4627,PAYLOAD,2024-03-29 17:00:14,15.08846551,0.0001405,53.2168,196.1504,92.5668,267.5485,0.00010948,1.455e-05,0.0,0 STARLINK-4627,1 53711U 22107M   24089.70849877  .00001455  00000-0  10948-3 0  9992,2 53711  53.2168 196.1504 0001405  92.5668 267.5485 15.08846551 87292,6917.86,95.437,540.697,538.753,0.0
53711.0,STARLINK-4627,PAYLOAD,2024-03-30 13:40:15,15.08834929,0.0001273,53.2164,192.2851,86.4278,273.686,-2.2965e-05,-6.53e-06,0.0,0 STARLINK-4627,1 53711U 22107M   24090.56962352 -.00000653  00000-0 -22965-4 0  9996,2 53711  53.2164 192.2851 0001273  86.4278 273.6860 15.08834929 86988,6917.896,95.438,540.642,538.88,0.0
53711.0,STARLINK-4627,PAYLOAD,2024-03-31 13:31:02,15.08837101,0.0001521,53.2198,187.8311,100.1047,260.0117,0.00019496,2.816e-05,0.0,0 STARLINK-4627,1 53711U 22107M   24091.56322246  .00002816  00000-0  19496-3 0  9994,2 53711  53.2198 187.8311 0001521 100.1047 260.0117 15.08837101 87576,6917.889,95.438,540.806,538.702,0.0
